1 41483U 98067JD  18053.67655819 +.00037212 +00000-0 +18411-3 0  9997
2 41483 051.6321 170.6929 0001511 324.9446 035.1457 15.81662164101157
1 41483U 98067JD  18053.67655819 +.00037212 +00000-0 +18411-3 0  9997
2 41483 051.6321 170.6929 0001511 324.9446 035.1457 15.81662164101157 #COPY DELTE ME
1 41486U 98067JG  18053.72456511 +.00125018 +00000-0 +45172-3 0  9990
2 41486 051.6262 169.3973 0004317 348.9843 011.1066 15.87730635101191
1 41487U 98067JH  18053.72319469 +.00459538 +10463-3 +78440-3 0  9999
2 41487 051.6208 165.5477 0008853 336.1632 023.8968 16.01881964101249
1 41564U 98067JN  18053.74839199 +.00024167 +00000-0 +14611-3 0  9993
2 41564 051.6266 177.1473 0001625 065.4018 294.7151 15.77473158099157
1 41565U 98067JP  18053.67470097 +.00055193 +00000-0 +18844-3 0  9999
2 41565 051.6235 162.1304 0004001 355.7973 004.2998 15.89189140099248
1 41572U 98067JW  18053.65345026 +.00802062 +35959-3 +87223-3 0  9994
2 41572 051.6273 162.0621 0010606 351.0100 009.0723 16.09137616099106
1 41573U 98067JX  18053.67889270 +.00541005 +14799-3 +79656-3 0  9998
2 41573 051.6242 159.1448 0008763 359.9876 000.1134 16.04345414099149
1 41574U 98067JY  18054.47094474  .00746929  28510-3  10977-2 0  9990
2 41574 51.6159 154.5315 0010052 11.4324 348.6914 16.04356450 99273
